135P/Shoemaker-Levy,e,6.0622,213.0178,22.3353,3.801996,0.1329495,0.29327825,178.6406,12/09.0/2025,2000,g  7.0,8.0
# From MPEC 2025-X35
136P/Mueller,e,9.4276,137.4100,225.4042,4.187706,0.1150111,0.29335884,39.0124,12/09.0/2025,2000,g 11.0,4.0
# From MPEC 2025-W75
137P/Shoemaker-Levy,e,4.8589,232.9295,141.2037,4.524338,0.1024169,0.57274269,261.3132,12/09.0/2025,2000,g 11.0,4.0
# From MPEC 2025-W75
138P/Shoemaker-Levy,e,10.0984,309.2191,95.7542,3.616061,0.1433344,0.53145436,344.9040,12/09.0/2025,2000,g 15.0,6.0
# From MPEC 2025-W75
139P/Vaisala-Oterma,e,2.3383,242.1326,166.0701,4.512552,0.1028184,0.24819660,299.2242,12/09.0/2025,2000,g  9.5,4.0
# From MPEC 2025-W75
140P/Bowell-Skiff,e,3.6807,343.3604,172.1459,6.414839,0.0606632,0.69495575,231.0088,12/09.0/2025,2000,g 11.5,6.0
# From MPEC 2025-W75
141P/Machholz,e,13.9606,241.7739,153.6469,3.056661,0.1844307,0.73583537,335.1036,12/09.0/2025,2000,g 12.0,12.0
# From MPEC 2015-KD9
141P-A/Machholz,e,13.9424,153.4954,241.9363,3.056929,0.1844065,0.73585500,335.0397,12/09.0/2025,2000,g 12.0,12.0
# From MPC 37026
141P-D/Machholz,e,13.8341,153.2203,242.1850,3.065480,0.1836354,0.73679389,330.5069,12/09.0/2025,2000,g 12.0,12.0
# From MPC186636
141P-H/Machholz,e,14.0167,241.8493,153.6213,3.045701,0.1854271,0.73458337,338.9020,12/09.0/2025,2000,g 18.5,4.0
# From MPEC 2022-SU8
141P-I/Machholz,e,13.9424,153.4506,241.9460,3.047363,0.1852754,0.73508368,336.7249,12/09.0/2025,2000,g 17.5,4.0
# From MPEC 2025-W75
142P/Ge-Wang,e,12.2432,175.9627,174.0428,5.003564,0.0880613,0.49576437,147.3625,12/09.0/2025,2000,g  8.5,6.0
# From MPEC 2025-X35
143P/Kowal-Mrkos,e,5.4007,242.1363,304.6790,4.760952,0.0948775,0.37899173,323.6043,12/09.0/2025,2000,g 13.5,2.0
# From MPEC 2025-W75
144P/Kushida,e,3.9312,242.9242,216.3777,3.834611,0.1312569,0.63494074,89.6675,12/09.0/2025,2000,g  8.5,8.0
# From MPEC 2025-X35
145P/Shoemaker-Levy,e,11.2783,26.7667,10.4196,4.129258,0.1174616,0.54235936,353.6647,12/09.0/2025,2000,g 13.5,4.0
# From MPEC 2025-W75
146P/Shoemaker-LINEAR,e,23.1168,53.3329,317.0214,4.022822,0.1221540,0.64759379,59.9310,12/09.0/2025,2000,g 15.0,4.0
# From MPEC 2025-W75
147P/Kushida-Muramatsu,e,2.3112,91.6649,348.6300,4.009230,0.1227757,0.21160431,90.0015,12/09.0/2025,2000,g 14.0,4.0
# From MPEC 2025-W75
148P/Anderson-LINEAR,e,3.6588,89.1950,8.0940,3.620248,0.1430858,0.55039010,182.2165,12/09.0/2025,2000,g 16.0,2.0
# From MPEC 2025-W75
149P/Mueller,e,34.2481,143.7192,30.1042,4.134304,0.1172467,0.32467038,316.4086,12/09.0/2025,2000,g  8.0,8.0
# From MPEC 2025-W75
150P/LONEOS,e,18.5480,272.0550,246.1254,3.872185,0.1293511,0.54933028,82.3174,12/09.0/2025,2000,g 13.5,4.0
# From MPEC 2025-W75
151P/Helin,e,4.7220,143.0589,216.1985,5.767699,0.0711541,0.57227038,264.0646,12/09.0/2025,2000,g 10.0,6.0
# From MPEC 2025-W75
152P/Helin-Lawrence,e,9.8796,91.7764,164.4060,4.486225,0.1037248,0.30653866,147.9771,12/09.0/2025,2000,g 11.5,4.0
# From MPEC 2025-W75
153P/Ikeya-Zhang,e,28.5028,93.8039,34.2052,50.77841,0.0027239,0.99025750,0.0000,03/15.4778/2002,2000,g  7.0,4.0
# From MPEC 2025-W75
154P/Brewington,e,17.6400,342.9948,47.9150,4.793632,0.0939090,0.67617380,51.0730,12/09.0/2025,2000,g  2.5,12.0
# From MPEC 2025-W75
155P/Shoemaker,e,6.4109,97.1568,14.5424,6.572533,0.0584931,0.72773701,129.4474,12/09.0/2025,2000,g 10.0,4.8
# From MPEC 2025-W75
156P/Russell-LINEAR,e,17.2574,35.3271,0.5316,3.462640,0.1529653,0.61474709,282.3567,12/09.0/2025,2000,g 15.5,2.0
# From MPEC 2025-W75
157P/Tritton,e,12.4252,287.4955,155.1939,3.548285,0.1474607,0.55672093,174.8474,12/09.0/2025,2000,g 10.0,4.0
# From MPEC 2022-VC5
157P-B/Tritton,e,12.4265,153.8682,287.2332,3.102758,0.1803359,0.49984680,214.1345,12/09.0/2025,2000,g 15.7,4.0
# From MPEC 2025-W75
158P/Kowal-LINEAR,e,7.4901,124.1936,233.0740,5.723303,0.0719837,0.11540866,83.2719,12/09.0/2025,2000,g  9.0,4.0
# From MPEC 2025-W75
159P/LONEOS,e,23.4783,54.9372,4.7512,5.856000,0.0695509,0.38233058,191.5198,12/09.0/2025,2000,g 10.0,4.0
# From MPEC 2025-W75
160P/LINEAR,e,15.5892,333.3161,12.7909,3.780370,0.1340919,0.52489927,295.0683,12/09.0/2025,2000,g 15.5,2.0
# From MPEC 2025-W75
161P/Hartley-IRAS,e,95.7881,1.4810,47.0776,7.718663,0.0459612,0.83610425,343.7515,12/09.0/2025,2000,g  8.5,6.0
# From MPEC 2025-W75
162P/SidingSpring,e,27.5519,30.8699,357.2466,3.091473,0.1813243,0.58287663,331.0169,12/09.0/2025,2000,g 12.0,4.0
# From MPEC 2025-W75
163P/NEAT,e,12.7244,102.0686,349.6684,3.760088,0.1351783,0.45347721,312.6899,12/09.0/2025,2000,g 14.5,4.0
# From MPEC 2025-X35
164P/Christensen,e,16.2762,88.2670,325.9280,3.652267,0.1412083,0.54143443,27.6249,12/09.0/2025,2000,g 11.0,4.0
# From MPEC 2025-W75
165P/LINEAR,e,15.9127,0.6267,125.9449,17.81534,0.0131073,0.61949442,121.9454,12/09.0/2025,2000,g 11.5,2.0
# From MPEC 2025-W75
166P/NEAT,e,15.3861,64.3364,321.9904,13.84952,0.0191228,0.38215152,164.2863,12/09.0/2025,2000,g  5.5,4.0
# From MPEC 2025-W75
167P/CINEOS,e,19.0725,295.8439,344.3185,16.24545,0.0150524,0.26789142,135.9258,12/09.0/2025,2000,g  9.5,2.0
# From MPEC 2025-W75
168P/Hergenrother,e,21.5945,355.3801,15.1061,3.586057,0.1451371,0.62110263,335.5725,12/09.0/2025,2000,g 15.5,4.0
# From MPEC 2025-W75
169P/NEAT,e,11.2852,176.0435,218.1329,2.603660,0.2345998,0.76795422,292.8166,12/09.0/2025,2000,g 16.0,2.0
# From MPEC 2025-W75
170P/Christensen,e,10.1343,142.6355,224.5952,4.191185,0.1148679,0.30543795,111.2892,12/09.0/2025,2000,g 12.0,4.0
# From MPEC 2025-WD0
171P/Spahr,e,21.9549,101.6939,347.0682,3.553405,0.1471421,0.50290416,11.0328,12/09.0/2025,2000,g 13.5,4.0
# From MPEC 2025-W75
172P/Yeung,e,11.2219,30.8803,208.8701,4.224643,0.1135061,0.20509532,4.1583,12/09.0/2025,2000,g 13.0,4.0
# From MPEC 2025-W75
173P/Mueller,e,16.4939,100.3451,29.3430,5.716834,0.0721059,0.26244726,104.6670,12/09.0/2025,2000,g  7.5,4.0
# From MPEC 2025-W75
175P/Hergenrother,e,4.9301,109.8082,74.5606,3.691493,0.1389636,0.37511015,322.7592,12/09.0/2025,2000,g 14.0,4.0
# From MPEC 2025-W75
177P/Barnard,e,30.9608,271.5936,61.0425,24.50042,0.0081273,0.95406788,57.2448,12/09.0/2025,2000,g 15.0,4.0
# From MPEC 2025-W75
178P/Hug-Bell,e,11.0929,102.7838,297.9665,3.632680,0.1423520,0.48216506,280.3522,12/09.0/2025,2000,g 13.5,4.0
# From MPEC 2025-W75
179P/Jedicke,e,19.8892,115.5051,297.2475,5.937841,0.0681179,0.30518314,87.6883,12/09.0/2025,2000,g  2.5,8.0
# From MPEC 2025-W75
180P/NEAT,e,16.8611,84.5553,94.5944,3.867387,0.1295918,0.35400698,114.1348,12/09.0/2025,2000,g 11.0,4.0
# From MPEC 2025-W75
181P/Shoemaker-Levy,e,17.4718,35.4249,336.3078,3.879667,0.1289770,0.69956049,184.5734,12/09.0/2025,2000,g 11.5,4.0
# From MPEC 2025-W75
182P/LONEOS,e,16.2299,72.4446,54.2289,2.948360,0.1946854,0.66404790,254.2154,12/09.0/2025,2000,g 18.0,4.0
# From MPEC 2025-W75
183P/Korlevic-Juric,e,18.7186,3.3709,161.9528,4.716494,0.0962222,0.10313863,298.5389,12/09.0/2025,2000,g 12.5,2.0
# From MPEC 2025-W75
184P/Lovas,e,4.5688,173.2260,186.5881,3.801502,0.1329754,0.54958266,248.8365,12/09.0/2025,2000,g 13.5,4.0
# From MPEC 2025-W75
185P/Petriew,e,14.0059,214.1245,181.9242,3.100065,0.1805710,0.69923608,158.9590,12/09.0/2025,2000,g 15.0,4.0
# From MPEC 2025-W75
186P/Garradd,e,28.6996,325.7587,267.9754,4.862205,0.0919294,0.12320936,235.8701,12/09.0/2025,2000,g  7.5,4.0
# From MPEC 2025-W75
187P/LINEAR,e,13.6693,109.8485,131.9914,4.546073,0.1016833,0.15659940,279.7915,12/09.0/2025,2000,g  9.0,4.0
# From MPEC 2025-W75
188P/LINEAR-Mueller,e,10.5258,358.9107,26.8484,4.363686,0.1081244,0.41652935,346.4498,12/09.0/2025,2000,g 11.5,4.0
# From MPEC 2025-W75
189P/NEAT,e,20.1213,281.6808,16.2109,2.937853,0.1957307,0.59158125,234.2243,12/09.0/2025,2000,g 19.0,4.0
# From MPEC 2025-W75
190P/Mueller,e,2.1768,335.4199,50.5314,4.230815,0.1132578,0.52312288,39.6263,12/09.0/2025,2000,g 13.0,4.0
# From MPEC 2025-W75
191P/McNaught,e,8.8396,98.1779,284.2608,3.641394,0.1418413,0.38491648,244.7010,12/09.0/2025,2000,g 13.0,4.0
# From MPEC 2025-W75
192P/Shoemaker-Levy,e,24.5764,51.5376,313.0219,6.446062,0.0602230,0.77328087,33.9397,12/09.0/2025,2000,g 15.0,4.0
# From MPEC 2025-W75
193P/LINEAR-NEAT,e,10.6777,335.1825,8.0965,3.580134,0.1454974,0.39245665,228.2615,12/09.0/2025,2000,g 14.0,4.0
# From MPEC 2025-W75
194P/LINEAR,e,11.8031,349.4971,128.6510,4.123714,0.1176986,0.56341124,79.2838,12/09.0/2025,2000,g 16.0,4.0
# From MPEC 2025-X35
195P/Hill,e,36.4150,243.0891,250.6583,6.440447,0.0603018,0.31050904,7.5358,12/09.0/2025,2000,g  8.5,4.0
# From MPEC 2025-W75
196P/Tichy,e,19.2908,24.1256,12.1483,3.806955,0.1326898,0.42728988,150.8743,12/09.0/2025,2000,g 13.5,4.0
# From MPEC 2025-W75
197P/LINEAR,e,25.1965,66.1199,189.9939,2.911178,0.1984271,0.61741252,218.5280,12/09.0/2025,2000,g 16.5,2.0
# From MPEC 2025-WD0
198P/ODAS,e,1.3393,358.3288,69.2808,3.631043,0.1424482,0.44784808,2.5457,12/09.0/2025,2000,g 12.5,4.0
# From MPEC 2025-W75
199P/Shoemaker,e,24.9397,92.3422,191.7426,5.871324,0.0692787,0.50420972,59.2248,12/09.0/2025,2000,g 10.0,4.0
# From MPEC 2025-W75
200P/Larsen,e,12.0965,234.7309,134.4506,4.954660,0.0893682,0.33080840,207.9072,12/09.0/2025,2000,g  9.0,4.0
# From MPEC 2025-W75
201P/LONEOS,e,5.7334,19.6782,41.6550,3.354492,0.1604220,0.63743447,265.6269,12/09.0/2025,2000,g 14.0,4.0
# From MPEC 2025-W75
202P/Scotti,e,2.1417,177.3001,274.5243,4.099398,0.1187474,0.25098229,67.7611,12/09.0/2025,2000,g 13.5,4.0
# From MPEC 2025-W75
203P/Korlevic,e,2.9762,290.2202,154.9679,4.668387,0.0977133,0.31635594,205.3828,12/09.0/2025,2000,g 14.5,2.0
# From MPEC 2025-W75
204P/LINEAR-NEAT,e,6.5984,108.4721,356.7448,3.584356,0.1452404,0.48830451,162.3094,12/09.0/2025,2000,g 14.0,4.0
# From MPEC 2025-W75
205P/Giacobini,e,15.2996,179.6246,154.1369,3.543358,0.1477684,0.56714617,210.8472,12/09.0/2025,2000,g 13.0,4.0
# From MPEC 2025-WD0
206P/Barnard-Boattini,e,33.6335,202.3138,189.5625,3.492785,0.1509894,0.55041003,262.7200,12/09.0/2025,2000,g 19.0,4.0
# From MPEC 2025-W75
207P/NEAT,e,10.1971,198.1188,273.0565,3.886859,0.1286192,0.75854075,87.0845,12/09.0/2025,2000,g 16.0,4.0
# From MPEC 2025-W75
